{
    "links": {
        "self": "http://www.neowsapp.com/rest/v1/neo/3383903?api_key=iIulBulltgU6a56xZRHN4H3l9WmuAYTsLGpBGhQ2"
    },
    "id": "3383903",
    "neo_reference_id": "3383903",
    "name": "(2007 RE2)",
    "designation": "2007 RE2",
    "nasa_jpl_url": "http://ssd.jpl.nasa.gov/sbdb.cgi?sstr=3383903",
    "absolute_magnitude_h": 22.8,
    "estimated_diameter": {
        "kilometers": {
            "estimated_diameter_min": 0.0732073989,
            "estimated_diameter_max": 0.1636967205
        },
        "meters": {
            "estimated_diameter_min": 73.2073989347,
            "estimated_diameter_max": 163.696720474
        },
        "miles": {
            "estimated_diameter_min": 0.0454889547,
            "estimated_diameter_max": 0.1017163949
        },
        "feet": {
            "estimated_diameter_min": 240.181762721,
            "estimated_diameter_max": 537.0627483999
        }
    },
    "is_potentially_hazardous_asteroid": false,
    "close_approach_data": [
        {
            "close_approach_date": "2007-09-02",
            "close_approach_date_full": "2007-Sep-02 15:27",
            "epoch_date_close_approach": 1188746820000,
            "relative_velocity": {
                "kilometers_per_second": "9.4935836582",
                "kilometers_per_hour": "34176.901169623",
                "miles_per_hour": "21236.1972850916"
            },
            "miss_distance": {
                "astronomical": "0.0618925636",
                "lunar": "24.0762072404",
                "kilometers": "9258995.683399532",
                "miles": "5753273.1348442616"
            },
            "orbiting_body": "Earth"
        }
    ],
    "orbital_data": {
        "orbit_id": "10",
        "orbit_determination_date": "2017-04-06 09:06:08",
        "first_observation_date": "2007-09-05",
        "last_observation_date": "2007-09-15",
        "data_arc_in_days": 10,
        "observations_used": 32,
        "orbit_uncertainty": "8",
        "minimum_orbit_intersection": ".05795",
        "jupiter_tisserand_invariant": "3.364",
        "epoch_osculation": "2454351.5",
        "eccentricity": ".5362522941089336",
        "semi_major_axis": "2.292979206189267",
        "inclination": "12.29306791120875",
        "ascending_node_longitude": "160.6233135485208",
        "orbital_period": "1268.231691378043",
        "perihelion_distance": "1.063363846526191",
        "perihelion_argument": "188.4525610184481",
        "aphelion_distance": "3.522594565852343",
        "perihelion_time": "2454353.545757712881",
        "mean_anomaly": "359.4192916155274",
        "mean_motion": ".2838598045194951",
        "equinox": "J2000",
        "orbit_class": {
            "orbit_class_type": "AMO",
            "orbit_class_description": "Near-Earth asteroid orbits similar to that of 1221 Amor",
            "orbit_class_range": "1.017 AU < q (perihelion) < 1.3 AU"
        }
    },
    "is_sentry_object": false
}